[{"OBJECT_NAME":"STARLINK-6038","OBJECT_ID":"2023-058A","EPOCH":"2026-03-09T22:22:49.720224","MEAN_MOTION":15.05647449,"ECCENTRICITY":0.00019937,"INCLINATION":97.6042,"RA_OF_ASC_NODE":71.4636,"ARG_OF_PERICENTER":91.5652,"MEAN_ANOMALY":268.5804,"EPHEMERIS_TYPE":0,"CLASSIFICATION_TYPE":"U","NORAD_CAT_ID":56317,"ELEMENT_SET_NO":999,"REV_AT_EPOCH":15788,"BSTAR":-3.59279e-6,"MEAN_MOTION_DOT":-1.13e-6,"MEAN_MOTION_DDOT":0},{"OBJECT_NAME":"EINSTEIN PROBE","OBJECT_ID":"2024-007A","EPOCH":"2026-03-09T14:28:05.763072","MEAN_MOTION":15.01336938,"ECCENTRICITY":0.0009522,"INCLINATION":28.998,"RA_OF_ASC_NODE":140.909,"ARG_OF_PERICENTER":248.3814,"MEAN_ANOMALY":111.577,"EPHEMERIS_TYPE":0,"CLASSIFICATION_TYPE":"U","NORAD_CAT_ID":58753,"ELEMENT_SET_NO":999,"REV_AT_EPOCH":11858,"BSTAR":0.00031977,"MEAN_MOTION_DOT":4.372e-5,"MEAN_MOTION_DDOT":0}]
